UNKNOWN                 
1 66551U 25271AE  25336.66670139 -.01709685  00000+0 -74303-2 0  9993
2 66551  53.1571 236.7807 0000717 110.7411 313.9012 15.87051116  2624
GLOBAL-33               
1 66554U 25267A   25339.62052572  .00020555  00000+0  66983-3 0  9990
2 66554  42.0195  98.0860 0005203   1.4634 358.6218 15.31384848  2312
ELECTRON KICK STAGE R/B 
1 66555U 25267B   25339.61351524  .00037666  00000+0  11829-2 0  9998
2 66555  42.0180  98.0330 0007145   0.7116 359.3730 15.32305312  2310
STARLINK-35699          
1 66557U 25268A   25339.91670139 -.01953982  00000+0 -21950-1 0  9996
2 66557  42.9998 161.3119 0001641 277.2068 123.3951 15.64964131  3577
STARLINK-35695          
1 66558U 25268B   25339.91670139 -.01955939  00000+0 -21974-1 0  9997
2 66558  42.9998 161.3073 0001716 278.2374 124.2828 15.64964072  3578
STARLINK-35419          
1 66559U 25268C   25339.91670139 -.01947822  00000+0 -21875-1 0  9990
2 66559  42.9998 161.3032 0001749 278.0576 126.3802 15.64958907  3577
STARLINK-35411          
1 66560U 25268D   25339.91670139 -.01944411  00000+0 -21834-1 0  9998
2 66560  42.9999 161.2983 0001795 278.3466 128.0098 15.64955966  3574
STARLINK-35305          
1 66561U 25268E   25339.91670139 -.01947114  00000+0 -21868-1 0  9999
2 66561  43.0000 161.2887 0001650 278.7774 131.4136 15.64957663  3521
STARLINK-35579          
1 66562U 25268F   25339.91670139 -.01945624  00000+0 -21849-1 0  9993
2 66562  42.9999 161.2929 0001733 277.9756 130.2980 15.64956800  3578
STARLINK-35437          
1 66563U 25268G   25339.91670139 -.01947313  00000+0 -21868-1 0  9992
2 66563  42.9999 161.2834 0001738 278.3583 133.7471 15.64959097  3576
STARLINK-35358          
1 66564U 25268H   25339.91670139 -.01947537  00000+0 -21872-1 0  9996
2 66564  42.9999 161.2788 0001727 278.8661 135.1576 15.64958505  3525
STARLINK-35893          
1 66565U 25268J   25339.91670139 -.01950002  00000+0 -21902-1 0  9992
2 66565  42.9999 161.2738 0001703 278.7873 137.1533 15.64960011  3574
