CCSDS_OMM_VERS = 2.0
CREATION_DATE  = 
ORIGINATOR     = 

OBJECT_NAME    = UNKNOWN
OBJECT_ID      = 2025-271AE
CENTER_NAME    = EARTH
REF_FRAME      = TEME
TIME_SYSTEM    = UTC
MEAN_ELEMENT_THEORY = SGP/SGP4

EPOCH          = 2025-12-02T16:00:03.000096
MEAN_MOTION    = 15.87051116
ECCENTRICITY   = .0000717
INCLINATION    = 53.1571
RA_OF_ASC_NODE = 236.7807
ARG_OF_PERICENTER = 110.7411
MEAN_ANOMALY   = 313.9012

EPHEMERIS_TYPE = 0
CLASSIFICATION_TYPE = U
NORAD_CAT_ID   = 66551
ELEMENT_SET_NO = 999
REV_AT_EPOCH   = 262
BSTAR          = -.74303E-2
MEAN_MOTION_DOT = -.1709685E-1
MEAN_MOTION_DDOT = 0

CCSDS_OMM_VERS = 2.0
CREATION_DATE  = 
ORIGINATOR     = 

OBJECT_NAME    = GLOBAL-33
OBJECT_ID      = 2025-267A
CENTER_NAME    = EARTH
REF_FRAME      = TEME
TIME_SYSTEM    = UTC
MEAN_ELEMENT_THEORY = SGP/SGP4

EPOCH          = 2025-12-05T14:53:33.422208
MEAN_MOTION    = 15.31384848
ECCENTRICITY   = .00052034
INCLINATION    = 42.0195
RA_OF_ASC_NODE = 98.0860
ARG_OF_PERICENTER = 1.4634
MEAN_ANOMALY   = 358.6218

EPHEMERIS_TYPE = 0
CLASSIFICATION_TYPE = U
NORAD_CAT_ID   = 66554
ELEMENT_SET_NO = 999
REV_AT_EPOCH   = 231
BSTAR          = .6698332E-3
MEAN_MOTION_DOT = .20555E-3
MEAN_MOTION_DDOT = 0

CCSDS_OMM_VERS = 2.0
CREATION_DATE  = 
ORIGINATOR     = 

OBJECT_NAME    = ELECTRON KICK STAGE R/B
OBJECT_ID      = 2025-267B
CENTER_NAME    = EARTH
REF_FRAME      = TEME
TIME_SYSTEM    = UTC
MEAN_ELEMENT_THEORY = SGP/SGP4

EPOCH          = 2025-12-05T14:43:27.716736
MEAN_MOTION    = 15.32305312
ECCENTRICITY   = .00071457
INCLINATION    = 42.0180
RA_OF_ASC_NODE = 98.0330
ARG_OF_PERICENTER = 0.7116
MEAN_ANOMALY   = 359.3730

EPHEMERIS_TYPE = 0
CLASSIFICATION_TYPE = U
NORAD_CAT_ID   = 66555
ELEMENT_SET_NO = 999
REV_AT_EPOCH   = 231
BSTAR          = .11829431E-2
MEAN_MOTION_DOT = .37666E-3
MEAN_MOTION_DDOT = 0

CCSDS_OMM_VERS = 2.0
CREATION_DATE  = 
ORIGINATOR     = 

OBJECT_NAME    = STARLINK-35699
OBJECT_ID      = 2025-268A
CENTER_NAME    = EARTH
REF_FRAME      = TEME
TIME_SYSTEM    = UTC
MEAN_ELEMENT_THEORY = SGP/SGP4

EPOCH          = 2025-12-05T22:00:03.000096
MEAN_MOTION    = 15.64964131
ECCENTRICITY   = .00016416
INCLINATION    = 42.9998
RA_OF_ASC_NODE = 161.3119
ARG_OF_PERICENTER = 277.2068
MEAN_ANOMALY   = 123.3951

EPHEMERIS_TYPE = 0
CLASSIFICATION_TYPE = U
NORAD_CAT_ID   = 66557
ELEMENT_SET_NO = 999
REV_AT_EPOCH   = 357
BSTAR          = -.21949707E-1
MEAN_MOTION_DOT = -.1953982E-1
MEAN_MOTION_DDOT = 0

CCSDS_OMM_VERS = 2.0
CREATION_DATE  = 
ORIGINATOR     = 

OBJECT_NAME    = STARLINK-35695
OBJECT_ID      = 2025-268B
CENTER_NAME    = EARTH
REF_FRAME      = TEME
TIME_SYSTEM    = UTC
MEAN_ELEMENT_THEORY = SGP/SGP4

EPOCH          = 2025-12-05T22:00:03.000096
MEAN_MOTION    = 15.64964072
ECCENTRICITY   = .00017165
INCLINATION    = 42.9998
RA_OF_ASC_NODE = 161.3073
ARG_OF_PERICENTER = 278.2374
MEAN_ANOMALY   = 124.2828

EPHEMERIS_TYPE = 0
CLASSIFICATION_TYPE = U
NORAD_CAT_ID   = 66558
ELEMENT_SET_NO = 999
REV_AT_EPOCH   = 357
BSTAR          = -.21973986E-1
MEAN_MOTION_DOT = -.1955939E-1
MEAN_MOTION_DDOT = 0

CCSDS_OMM_VERS = 2.0
CREATION_DATE  = 
ORIGINATOR     = 

OBJECT_NAME    = STARLINK-35419
OBJECT_ID      = 2025-268C
CENTER_NAME    = EARTH
REF_FRAME      = TEME
TIME_SYSTEM    = UTC
MEAN_ELEMENT_THEORY = SGP/SGP4

EPOCH          = 2025-12-05T22:00:03.000096
MEAN_MOTION    = 15.64958907
ECCENTRICITY   = .0001749
INCLINATION    = 42.9998
RA_OF_ASC_NODE = 161.3032
ARG_OF_PERICENTER = 278.0576
MEAN_ANOMALY   = 126.3802

EPHEMERIS_TYPE = 0
CLASSIFICATION_TYPE = U
NORAD_CAT_ID   = 66559
ELEMENT_SET_NO = 999
REV_AT_EPOCH   = 357
BSTAR          = -.21874814E-1
MEAN_MOTION_DOT = -.1947822E-1
MEAN_MOTION_DDOT = 0

CCSDS_OMM_VERS = 2.0
CREATION_DATE  = 
ORIGINATOR     = 

OBJECT_NAME    = STARLINK-35411
OBJECT_ID      = 2025-268D
CENTER_NAME    = EARTH
REF_FRAME      = TEME
TIME_SYSTEM    = UTC
MEAN_ELEMENT_THEORY = SGP/SGP4

EPOCH          = 2025-12-05T22:00:03.000096
MEAN_MOTION    = 15.64955966
ECCENTRICITY   = .00017955
INCLINATION    = 42.9999
RA_OF_ASC_NODE = 161.2983
ARG_OF_PERICENTER = 278.3466
MEAN_ANOMALY   = 128.0098

EPHEMERIS_TYPE = 0
CLASSIFICATION_TYPE = U
NORAD_CAT_ID   = 66560
ELEMENT_SET_NO = 999
REV_AT_EPOCH   = 357
BSTAR          = -.21833526E-1
MEAN_MOTION_DOT = -.1944411E-1
MEAN_MOTION_DDOT = 0

CCSDS_OMM_VERS = 2.0
CREATION_DATE  = 
ORIGINATOR     = 

OBJECT_NAME    = STARLINK-35305
OBJECT_ID      = 2025-268E
CENTER_NAME    = EARTH
REF_FRAME      = TEME
TIME_SYSTEM    = UTC
MEAN_ELEMENT_THEORY = SGP/SGP4

EPOCH          = 2025-12-05T22:00:03.000096
MEAN_MOTION    = 15.64957663
ECCENTRICITY   = .00016508
INCLINATION    = 43.0000
RA_OF_ASC_NODE = 161.2887
ARG_OF_PERICENTER = 278.7774
MEAN_ANOMALY   = 131.4136

EPHEMERIS_TYPE = 0
CLASSIFICATION_TYPE = U
NORAD_CAT_ID   = 66561
ELEMENT_SET_NO = 999
REV_AT_EPOCH   = 352
BSTAR          = -.21867848E-1
MEAN_MOTION_DOT = -.1947114E-1
MEAN_MOTION_DDOT = 0

CCSDS_OMM_VERS = 2.0
CREATION_DATE  = 
ORIGINATOR     = 

OBJECT_NAME    = STARLINK-35579
OBJECT_ID      = 2025-268F
CENTER_NAME    = EARTH
REF_FRAME      = TEME
TIME_SYSTEM    = UTC
MEAN_ELEMENT_THEORY = SGP/SGP4

EPOCH          = 2025-12-05T22:00:03.000096
MEAN_MOTION    = 15.64956800
ECCENTRICITY   = .00017334
INCLINATION    = 42.9999
RA_OF_ASC_NODE = 161.2929
ARG_OF_PERICENTER = 277.9756
MEAN_ANOMALY   = 130.2980

EPHEMERIS_TYPE = 0
CLASSIFICATION_TYPE = U
NORAD_CAT_ID   = 66562
ELEMENT_SET_NO = 999
REV_AT_EPOCH   = 357
BSTAR          = -.2184883E-1
MEAN_MOTION_DOT = -.1945624E-1
MEAN_MOTION_DDOT = 0

CCSDS_OMM_VERS = 2.0
CREATION_DATE  = 
ORIGINATOR     = 

OBJECT_NAME    = STARLINK-35437
OBJECT_ID      = 2025-268G
CENTER_NAME    = EARTH
REF_FRAME      = TEME
TIME_SYSTEM    = UTC
MEAN_ELEMENT_THEORY = SGP/SGP4

EPOCH          = 2025-12-05T22:00:03.000096
MEAN_MOTION    = 15.64959097
ECCENTRICITY   = .00017384
INCLINATION    = 42.9999
RA_OF_ASC_NODE = 161.2834
ARG_OF_PERICENTER = 278.3583
MEAN_ANOMALY   = 133.7471

EPHEMERIS_TYPE = 0
CLASSIFICATION_TYPE = U
NORAD_CAT_ID   = 66563
ELEMENT_SET_NO = 999
REV_AT_EPOCH   = 357
BSTAR          = -.21868263E-1
MEAN_MOTION_DOT = -.1947313E-1
MEAN_MOTION_DDOT = 0

CCSDS_OMM_VERS = 2.0
CREATION_DATE  = 
ORIGINATOR     = 

OBJECT_NAME    = STARLINK-35358
OBJECT_ID      = 2025-268H
CENTER_NAME    = EARTH
REF_FRAME      = TEME
TIME_SYSTEM    = UTC
MEAN_ELEMENT_THEORY = SGP/SGP4

EPOCH          = 2025-12-05T22:00:03.000096
MEAN_MOTION    = 15.64958505
ECCENTRICITY   = .00017275
INCLINATION    = 42.9999
RA_OF_ASC_NODE = 161.2788
ARG_OF_PERICENTER = 278.8661
MEAN_ANOMALY   = 135.1576

EPHEMERIS_TYPE = 0
CLASSIFICATION_TYPE = U
NORAD_CAT_ID   = 66564
ELEMENT_SET_NO = 999
REV_AT_EPOCH   = 352
BSTAR          = -.21871746E-1
MEAN_MOTION_DOT = -.1947537E-1
MEAN_MOTION_DDOT = 0

CCSDS_OMM_VERS = 2.0
CREATION_DATE  = 
ORIGINATOR     = 

OBJECT_NAME    = STARLINK-35893
OBJECT_ID      = 2025-268J
CENTER_NAME    = EARTH
REF_FRAME      = TEME
TIME_SYSTEM    = UTC
MEAN_ELEMENT_THEORY = SGP/SGP4

EPOCH          = 2025-12-05T22:00:03.000096
MEAN_MOTION    = 15.64960011
ECCENTRICITY   = .00017032
INCLINATION    = 42.9999
RA_OF_ASC_NODE = 161.2738
ARG_OF_PERICENTER = 278.7873
MEAN_ANOMALY   = 137.1533

EPHEMERIS_TYPE = 0
CLASSIFICATION_TYPE = U
NORAD_CAT_ID   = 66565
ELEMENT_SET_NO = 999
REV_AT_EPOCH   = 357
BSTAR          = -.21902051E-1
MEAN_MOTION_DOT = -.1950002E-1
MEAN_MOTION_DDOT = 0

